{
  "norad_id": 22826,
  "name": "ITAMSAT (IO-26)",
  "history": [
    {
      "epoch": "2026-03-28T17:31:08.670144",
      "apogee_km": 793.0703646856646,
      "perigee_km": 781.4141556279974,
      "latitude_deg": -21.659949547827093,
      "longitude_deg": 132.67630016012117,
      "semi_major_axis_km": 7165.379260156831,
      "eccentricity": 0.00081337,
      "inclination_deg": 98.6893,
      "raan_deg": 155.0603,
      "arg_perigee_deg": 326.1072,
      "mean_anomaly_deg": 33.959,
      "mean_motion_rev_day": 14.3134389
    },
    {
      "epoch": "2026-03-29T03:35:07.001376",
      "apogee_km": 793.0556343148446,
      "perigee_km": 781.4276578479839,
      "latitude_deg": 14.376493795311653,
      "longitude_deg": 172.94111264008097,
      "semi_major_axis_km": 7165.378646081414,
      "eccentricity": 0.0008114,
      "inclination_deg": 98.6892,
      "raan_deg": 155.4799,
      "arg_perigee_deg": 324.7707,
      "mean_anomaly_deg": 35.2939,
      "mean_motion_rev_day": 14.31344074
    }
  ]
}